start=new Date('2023-01-21T00:00:00.000Z').valueOf();
sats=[{"GP_ID":"223545453","MEAN_ANOMALY":"257.5098","SITE":"AFETR","MEAN_MOTION_DDOT":"0.0000000000000","PERIAPSIS":"545.841","BSTAR":"0.00044064000000","REV_AT_EPOCH":"10355","DECAY_DATE":null,"FILE":"3755973","ELEMENT_SET_NO":"999","CLASSIFICATION_TYPE":"U","ARG_OF_PERICENTER":"102.6112","TIME_SYSTEM":"UTC","INCLINATION":"53.0536","EPOCH":"2023-01-20T07:57:49.130496","MEAN_MOTION_DOT":"0.00006288","MEAN_MOTION":"15.06401477","ECCENTRICITY":"0.00019760","TLE_LINE1":"1 47912U 21021BE  23020.33181864  .00006288  00000-0  44064-3 0  9995","EPHEMERIS_TYPE":"0","COUNTRY_CODE":"US","CENTER_NAME":"EARTH","SEMIMAJOR_AXIS":"6925.344","OBJECT_ID":"2021-021BE","RA_OF_ASC_NODE":"8.8391","PERIOD":"95.592","LAUNCH_DATE":"2021-03-14","RCS_SIZE":"LARGE","APOAPSIS":"548.577","OBJECT_NAME":"STARLINK-2372","REF_FRAME":"TEME","MEAN_ELEMENT_THEORY":"SGP4","NORAD_CAT_ID":"47912","TLE_LINE2":"2 47912  53.0536   8.8391 0001976 102.6112 257.5098 15.06401477103557","OBJECT_TYPE":"PAYLOAD"},{"TLE_LINE1":"1 47913U 21021BF  23020.47199141  .00028164  00000-0  19029-2 0  9997","ECCENTRICITY":"0.00016020","MEAN_MOTION":"15.06384841","MEAN_MOTION_DOT":"0.00028164","EPOCH":"2023-01-20T11:19:40.057824","INCLINATION":"53.0544","CLASSIFICATION_TYPE":"U","TIME_SYSTEM":"UTC","ARG_OF_PERICENTER":"92.7879","ELEMENT_SET_NO":"999","FILE":"3755973","REV_AT_EPOCH":"10359","DECAY_DATE":null,"PERIAPSIS":"546.151","BSTAR":"0.00190290000000","MEAN_MOTION_DDOT":"0.0000000000000","SITE":"AFETR","MEAN_ANOMALY":"267.3294","GP_ID":"223546205","TLE_LINE2":"2 47913  53.0544  18.6914 0001602  92.7879 267.3294 15.06384841103598","OBJECT_TYPE":"PAYLOAD","NORAD_CAT_ID":"47913","MEAN_ELEMENT_THEORY":"SGP4","REF_FRAME":"TEME","OBJECT_NAME":"STARLINK-2374","APOAPSIS":"548.369","RCS_SIZE":"LARGE","LAUNCH_DATE":"2021-03-14","PERIOD":"95.593","RA_OF_ASC_NODE":"18.6914","SEMIMAJOR_AXIS":"6925.395","OBJECT_ID":"2021-021BF","CENTER_NAME":"EARTH","COUNTRY_CODE":"US","EPHEMERIS_TYPE":"0"},{"MEAN_ELEMENT_THEORY":"SGP4","REF_FRAME":"TEME","TLE_LINE2":"2 47914  53.0547  17.2380 0002067  94.3740 265.7485 15.06382339103140","OBJECT_TYPE":"PAYLOAD","NORAD_CAT_ID":"47914","OBJECT_NAME":"STARLINK-2375","APOAPSIS":"548.699","RCS_SIZE":"LARGE","LAUNCH_DATE":"2021-03-14","PERIOD":"95.593","COUNTRY_CODE":"US","EPHEMERIS_TYPE":"0","RA_OF_ASC_NODE":"17.2380","SEMIMAJOR_AXIS":"6925.403","OBJECT_ID":"2021-021BG","CENTER_NAME":"EARTH","TLE_LINE1":"1 47914U 21021BG  23020.68939246  .00014895  00000-0  10172-2 0  9995","ECCENTRICITY":"0.00020670","MEAN_MOTION":"15.06382339","INCLINATION":"53.0547","CLASSIFICATION_TYPE":"U","ARG_OF_PERICENTER":"94.3740","TIME_SYSTEM":"UTC","MEAN_MOTION_DOT":"0.00014895","EPOCH":"2023-01-20T16:32:43.508544","ELEMENT_SET_NO":"999","FILE":"3756003","REV_AT_EPOCH":"10314","DECAY_DATE":null,"BSTAR":"0.00101720000000","PERIAPSIS":"545.836","MEAN_ANOMALY":"265.7485","GP_ID":"223550898","MEAN_MOTION_DDOT":"0.0000000000000","SITE":"AFETR"},{"TLE_LINE1":"1 47915U 21021BH  23020.35626868 -.00000418  00000-0 -91848-5 0  9993","MEAN_MOTION":"15.06387558","ECCENTRICITY":"0.00016540","MEAN_MOTION_DOT":"-0.00000418","EPOCH":"2023-01-20T08:33:01.613952","INCLINATION":"53.0563","CLASSIFICATION_TYPE":"U","ARG_OF_PERICENTER":"49.8705","TIME_SYSTEM":"UTC","ELEMENT_SET_NO":"999","FILE":"3755973","REV_AT_EPOCH":"10365","DECAY_DATE":null,"PERIAPSIS":"546.106","BSTAR":"-0.00000918480000","MEAN_MOTION_DDOT":"0.0000000000000","SITE":"AFETR","MEAN_ANOMALY":"310.2429","GP_ID":"223544704","TLE_LINE2":"2 47915  53.0563  13.7292 0001654  49.8705 310.2429 15.06387558103657","OBJECT_TYPE":"PAYLOAD","NORAD_CAT_ID":"47915","MEAN_ELEMENT_THEORY":"SGP4","REF_FRAME":"TEME","OBJECT_NAME":"STARLINK-2376","APOAPSIS":"548.397","RCS_SIZE":"LARGE","LAUNCH_DATE":"2021-03-14","PERIOD":"95.593","RA_OF_ASC_NODE":"13.7292","SEMIMAJOR_AXIS":"6925.387","OBJECT_ID":"2021-021BH","CENTER_NAME":"EARTH","COUNTRY_CODE":"US","EPHEMERIS_TYPE":"0"},{"MEAN_ANOMALY":"276.5789","GP_ID":"223544954","MEAN_MOTION_DDOT":"0.0000000000000","SITE":"AFETR","ELEMENT_SET_NO":"999","FILE":"3755973","DECAY_DATE":null,"REV_AT_EPOCH":"10383","PERIAPSIS":"546.126","BSTAR":"0.00040759000000","INCLINATION":"53.0538","TIME_SYSTEM":"UTC","CLASSIFICATION_TYPE":"U","ARG_OF_PERICENTER":"83.5378","MEAN_MOTION_DOT":"0.00005795","EPOCH":"2023-01-20T07:55:12.736992","TLE_LINE1":"1 47916U 21021BJ  23020.33000853  .00005795  00000-0  40759-3 0  9996","ECCENTRICITY":"0.00015630","MEAN_MOTION":"15.06401639","COUNTRY_CODE":"US","EPHEMERIS_TYPE":"0","RA_OF_ASC_NODE":"358.8529","OBJECT_ID":"2021-021BJ","SEMIMAJOR_AXIS":"6925.344","CENTER_NAME":"EARTH","RCS_SIZE":"LARGE","LAUNCH_DATE":"2021-03-14","PERIOD":"95.592","OBJECT_NAME":"STARLINK-2378","APOAPSIS":"548.291","MEAN_ELEMENT_THEORY":"SGP4","REF_FRAME":"TEME","OBJECT_TYPE":"PAYLOAD","TLE_LINE2":"2 47916  53.0538 358.8529 0001563  83.5378 276.5789 15.06401639103836","NORAD_CAT_ID":"47916"},{"EPHEMERIS_TYPE":"0","COUNTRY_CODE":"US","CENTER_NAME":"EARTH","OBJECT_ID":"2021-021BK","SEMIMAJOR_AXIS":"6925.367","RA_OF_ASC_NODE":"9.1144","PERIOD":"95.593","RCS_SIZE":"LARGE","LAUNCH_DATE":"2021-03-14","APOAPSIS":"548.450","OBJECT_NAME":"STARLINK-2397","REF_FRAME":"TEME","MEAN_ELEMENT_THEORY":"SGP4","NORAD_CAT_ID":"47917","OBJECT_TYPE":"PAYLOAD","TLE_LINE2":"2 47917  53.0577   9.1144 0001760  90.2580 269.8611 15.06394107103670","GP_ID":"223545706","MEAN_ANOMALY":"269.8611","SITE":"AFETR","MEAN_MOTION_DDOT":"0.0000000000000","BSTAR":"-0.00013161000000","PERIAPSIS":"546.013","DECAY_DATE":null,"REV_AT_EPOCH":"10367","FILE":"3755973","ELEMENT_SET_NO":"999","ARG_OF_PERICENTER":"90.2580","CLASSIFICATION_TYPE":"U","TIME_SYSTEM":"UTC","INCLINATION":"53.0577","EPOCH":"2023-01-20T06:28:58.583136","MEAN_MOTION_DOT":"-0.00002241","MEAN_MOTION":"15.06394107","ECCENTRICITY":"0.00017600","TLE_LINE1":"1 47917U 21021BK  23020.27012249 -.00002241  00000-0 -13161-3 0  9994"},{"COUNTRY_CODE":"US","EPHEMERIS_TYPE":"0","RA_OF_ASC_NODE":"9.0905","OBJECT_ID":"2021-021BL","SEMIMAJOR_AXIS":"6925.370","CENTER_NAME":"EARTH","LAUNCH_DATE":"2021-03-14","RCS_SIZE":"LARGE","PERIOD":"95.593","OBJECT_NAME":"STARLINK-2398","APOAPSIS":"548.438","MEAN_ELEMENT_THEORY":"SGP4","REF_FRAME":"TEME","OBJECT_TYPE":"PAYLOAD","TLE_LINE2":"2 47918  53.0540   9.0905 0001736 102.9755 257.1428 15.06392865103702","NORAD_CAT_ID":"47918","MEAN_ANOMALY":"257.1428","GP_ID":"223546454","MEAN_MOTION_DDOT":"0.0000000000000","SITE":"AFETR","ELEMENT_SET_NO":"999","FILE":"3755973","DECAY_DATE":null,"REV_AT_EPOCH":"10370","BSTAR":"-0.00027319000000","PERIAPSIS":"546.033","INCLINATION":"53.0540","CLASSIFICATION_TYPE":"U","ARG_OF_PERICENTER":"102.9755","TIME_SYSTEM":"UTC","MEAN_MOTION_DOT":"-0.00004348","EPOCH":"2023-01-20T06:39:33.967008","TLE_LINE1":"1 47918U 21021BL  23020.27747647 -.00004348  00000-0 -27319-3 0  9992","ECCENTRICITY":"0.00017360","MEAN_MOTION":"15.06392865"},{"ECCENTRICITY":"0.00018520","MEAN_MOTION":"15.06397549","TLE_LINE1":"1 47919U 21021BM  23020.39450863  .00009200  00000-0  63576-3 0  9992","INCLINATION":"53.0533","ARG_OF_PERICENTER":"88.9154","CLASSIFICATION_TYPE":"U","TIME_SYSTEM":"UTC","EPOCH":"2023-01-20T09:28:05.545632","MEAN_MOTION_DOT":"0.00009200","DECAY_DATE":null,"REV_AT_EPOCH":"10308","PERIAPSIS":"545.938","BSTAR":"0.00063576000000","ELEMENT_SET_NO":"999","FILE":"3756019","MEAN_ANOMALY":"271.2047","GP_ID":"223551093","SITE":"AFETR","MEAN_MOTION_DDOT":"0.0000000000000","MEAN_ELEMENT_THEORY":"SGP4","REF_FRAME":"TEME","TLE_LINE2":"2 47919  53.0533  18.5645 0001852  88.9154 271.2047 15.06397549103085","OBJECT_TYPE":"PAYLOAD","NORAD_CAT_ID":"47919","OBJECT_NAME":"STARLINK-2405","APOAPSIS":"548.504","PERIOD":"95.592","LAUNCH_DATE":"2021-03-14","RCS_SIZE":"LARGE","EPHEMERIS_TYPE":"0","COUNTRY_CODE":"US","SEMIMAJOR_AXIS":"6925.356","OBJECT_ID":"2021-021BM","CENTER_NAME":"EARTH","RA_OF_ASC_NODE":"18.5645"},{"MEAN_MOTION_DDOT":"0.0000000000000","SITE":"AFETR","GP_ID":"223553706","MEAN_ANOMALY":"265.0255","FILE":"3756122","ELEMENT_SET_NO":"999","BSTAR":"-0.00004181800000","PERIAPSIS":"545.993","REV_AT_EPOCH":"10177","DECAY_DATE":null,"MEAN_MOTION_DOT":"-0.00000905","EPOCH":"2023-01-20T19:13:56.449920","ARG_OF_PERICENTER":"95.0929","CLASSIFICATION_TYPE":"U","TIME_SYSTEM":"UTC","INCLINATION":"53.0544","TLE_LINE1":"1 47977U 21024A   23020.80134780 -.00000905  00000-0 -41818-4 0  9993","ECCENTRICITY":"0.00017100","MEAN_MOTION":"15.06411899","RA_OF_ASC_NODE":"61.7433","CENTER_NAME":"EARTH","OBJECT_ID":"2021-024A","SEMIMAJOR_AXIS":"6925.312","COUNTRY_CODE":"US","EPHEMERIS_TYPE":"0","RCS_SIZE":"LARGE","LAUNCH_DATE":"2021-03-24","PERIOD":"95.591","APOAPSIS":"548.361","OBJECT_NAME":"STARLINK-2087","NORAD_CAT_ID":"47977","OBJECT_TYPE":"PAYLOAD","TLE_LINE2":"2 47977  53.0544  61.7433 0001710  95.0929 265.0255 15.06411899101779","REF_FRAME":"TEME","MEAN_ELEMENT_THEORY":"SGP4"},{"ELEMENT_SET_NO":"999","FILE":"3755973","REV_AT_EPOCH":"10210","DECAY_DATE":null,"PERIAPSIS":"546.027","BSTAR":"0.00035912000000","MEAN_MOTION_DDOT":"0.0000000000000","SITE":"AFETR","MEAN_ANOMALY":"291.1187","GP_ID":"223545712","TLE_LINE1":"1 47978U 21024B   23020.49079933  .00005072  00000-0  35912-3 0  9992","MEAN_MOTION":"15.06403186","ECCENTRICITY":"0.00016990","MEAN_MOTION_DOT":"0.00005072","EPOCH":"2023-01-20T11:46:45.062112","INCLINATION":"53.0556","TIME_SYSTEM":"UTC","CLASSIFICATION_TYPE":"U","ARG_OF_PERICENTER":"68.9984","LAUNCH_DATE":"2021-03-24","RCS_SIZE":"LARGE","PERIOD":"95.592","RA_OF_ASC_NODE":"73.1326","SEMIMAJOR_AXIS":"6925.339","OBJECT_ID":"2021-024B","CENTER_NAME":"EARTH","COUNTRY_CODE":"US","EPHEMERIS_TYPE":"0","TLE_LINE2":"2 47978  53.0556  73.1326 0001699  68.9984 291.1187 15.06403186102109","OBJECT_TYPE":"PAYLOAD","NORAD_CAT_ID":"47978","MEAN_ELEMENT_THEORY":"SGP4","REF_FRAME":"TEME","OBJECT_NAME":"STARLINK-1647","APOAPSIS":"548.380"}];
